{"type": "FeatureCollection", "features": [ {"type": "Feature", "properties": {"norad_id": 45344, "name": "BEIDOU-3 G2 (C60)", "group": "gnss", "lat": 2.2507297186143025, "lon": 160.06207506583178, "alt_km": 35802.08073341195, "timestamp": "2025-12-16T23:36:36.440023+00:00", "meta": {"OBJECT_NAME": "BEIDOU-3 G2 (C60)", "OBJECT_ID": "2020-017A", "EPOCH": "2025-12-16T08:36:05.183712", "MEAN_MOTION": 1.00273108, "ECCENTRICITY": 0.00043735, "INCLINATION": 2.504, "RA_OF_ASC_NODE": 43.9369, "ARG_OF_PERICENTER": 271.0939, "MEAN_ANOMALY": 339.2897, "EPHEMERIS_TYPE": 0, "CLASSIFICATION_TYPE": "U", "NORAD_CAT_ID": 45344, "ELEMENT_SET_NO": 999, "REV_AT_EPOCH": 2142, "BSTAR": 0, "MEAN_MOTION_DOT": -1.19e-06, "MEAN_MOTION_DDOT": 0}, "tle": {"line1": "1 45344U 20017A   25350.35839333 -.00000119  00000+0  00000+0 0  9992", "line2": "2 45344   2.5040  43.9369 0004373 271.0939 339.2897  1.00273108 21427"}}, "geometry": {"type": "Point", "coordinates": [160.06207506583178, 2.2507297186143025]}}, {"type": "Feature", "properties": {"norad_id": 45358, "name": "COSMOS 2545 (760)", "group": "gnss", "lat": -44.597793220812505, "lon": 166.9179057238847, "alt_km": 19106.831591343216, "timestamp": "2025-12-16T23:36:36.440037+00:00", "meta": {"OBJECT_NAME": "COSMOS 2545 (760)", "OBJECT_ID": "2020-018A", "EPOCH": "2025-12-14T19:19:41.135808", "MEAN_MOTION": 2.13102428, "ECCENTRICITY": 0.00117069, "INCLINATION": 64.4681, "RA_OF_ASC_NODE": 318.8965, "ARG_OF_PERICENTER": 249.0608, "MEAN_ANOMALY": 110.81, "EPHEMERIS_TYPE": 0, "CLASSIFICATION_TYPE": "U", "NORAD_CAT_ID": 45358, "ELEMENT_SET_NO": 999, "REV_AT_EPOCH": 4473, "BSTAR": 0, "MEAN_MOTION_DOT": -6.9e-07, "MEAN_MOTION_DDOT": 0}, "tle": {"line1": "1 45358U 20018A   25348.80533722 -.00000069  00000+0  00000+0 0  9992", "line2": "2 45358  64.4681 318.8965 0011706 249.0608 110.8100  2.13102428 44732"}}, "geometry": {"type": "Point", "coordinates": [166.9179057238847, -44.597793220812505]}}, {"type": "Feature", "properties": {"norad_id": 45807, "name": "BEIDOU-3 G3 (C61)", "group": "gnss", "lat": 1.6480075522699076, "lon": -169.38778891570794, "alt_km": 35812.340323726115, "timestamp": "2025-12-16T23:36:36.440049+00:00", "meta": {"OBJECT_NAME": "BEIDOU-3 G3 (C61)", "OBJECT_ID": "2020-040A", "EPOCH": "2025-12-16T07:01:59.196000", "MEAN_MOTION": 1.00272482, "ECCENTRICITY": 0.0006341, "INCLINATION": 1.9998, "RA_OF_ASC_NODE": 66.6159, "ARG_OF_PERICENTER": 308.3775, "MEAN_ANOMALY": 286.2679, "EPHEMERIS_TYPE": 0, "CLASSIFICATION_TYPE": "U", "NORAD_CAT_ID": 45807, "ELEMENT_SET_NO": 999, "REV_AT_EPOCH": 2023, "BSTAR": 0, "MEAN_MOTION_DOT": -3.32e-06, "MEAN_MOTION_DDOT": 0}, "tle": {"line1": "1 45807U 20040A   25350.29304625 -.00000332  00000+0  00000+0 0  9993", "line2": "2 45807   1.9998  66.6159 0006341 308.3775 286.2679  1.00272482 20235"}}, "geometry": {"type": "Point", "coordinates": [-169.38778891570794, 1.6480075522699076]}}, {"type": "Feature", "properties": {"norad_id": 45854, "name": "GPS BIII-3  (PRN 23)", "group": "gnss", "lat": 9.65706993719497, "lon": -150.41427120041985, "alt_km": 20049.61290709242, "timestamp": "2025-12-16T23:36:36.440061+00:00", "meta": {"OBJECT_NAME": "GPS BIII-3  (PRN 23)", "OBJECT_ID": "2020-041A", "EPOCH": "2025-12-15T00:47:17.642112", "MEAN_MOTION": 2.00562009, "ECCENTRICITY": 0.00605565, "INCLINATION": 56.5486, "RA_OF_ASC_NODE": 36.096, "ARG_OF_PERICENTER": 203.5023, "MEAN_ANOMALY": 356.6699, "EPHEMERIS_TYPE": 0, "CLASSIFICATION_TYPE": "U", "NORAD_CAT_ID": 45854, "ELEMENT_SET_NO": 999, "REV_AT_EPOCH": 4034, "BSTAR": 0, "MEAN_MOTION_DOT": -9.1e-07, "MEAN_MOTION_DDOT": 0}, "tle": {"line1": "1 45854U 20041A   25349.03284308 -.00000091  00000+0  00000+0 0  9993", "line2": "2 45854  56.5486  36.0960 0060556 203.5023 356.6699  2.00562009 40342"}}, "geometry": {"type": "Point", "coordinates": [-150.41427120041985, 9.65706993719497]}}, {"type": "Feature", "properties": {"norad_id": 46114, "name": "GALAXY 30 (WAAS/PRN 135)", "group": "gnss", "lat": -0.02717969432897414, "lon": -44.971625444800026, "alt_km": 35780.68860859336, "timestamp": "2025-12-16T23:36:36.440074+00:00", "meta": {"OBJECT_NAME": "GALAXY 30 (WAAS/PRN 135)", "OBJECT_ID": "2020-056C", "EPOCH": "2025-12-16T07:49:38.599680", "MEAN_MOTION": 1.00271775, "ECCENTRICITY": 0.00020584, "INCLINATION": 0.0177, "RA_OF_ASC_NODE": 8.9457, "ARG_OF_PERICENTER": 253.9841, "MEAN_ANOMALY": 174.7024, "EPHEMERIS_TYPE": 0, "CLASSIFICATION_TYPE": "U", "NORAD_CAT_ID": 46114, "ELEMENT_SET_NO": 999, "REV_AT_EPOCH": 1945, "BSTAR": 0, "MEAN_MOTION_DOT": 6e-07, "MEAN_MOTION_DDOT": 0}, "tle": {"line1": "1 46114U 20056C   25350.32614120  .00000060  00000+0  00000+0 0  9997", "line2": "2 46114   0.0177   8.9457 0002058 253.9841 174.7024  1.00271775 19457"}}, "geometry": {"type": "Point", "coordinates": [-44.971625444800026, -0.02717969432897414]}}, {"type": "Feature", "properties": {"norad_id": 46805, "name": "COSMOS 2547 (705K)", "group": "gnss", "lat": 64.39176983934942, "lon": -78.84327496995391, "alt_km": 19135.65448806642, "timestamp": "2025-12-16T23:36:36.440086+00:00", "meta": {"OBJECT_NAME": "COSMOS 2547 (705K)", "OBJECT_ID": "2020-075A", "EPOCH": "2025-12-15T22:22:03.065088", "MEAN_MOTION": 2.13100081, "ECCENTRICITY": 0.00062311, "INCLINATION": 64.5961, "RA_OF_ASC_NODE": 198.5898, "ARG_OF_PERICENTER": 228.6409, "MEAN_ANOMALY": 131.3861, "EPHEMERIS_TYPE": 0, "CLASSIFICATION_TYPE": "U", "NORAD_CAT_ID": 46805, "ELEMENT_SET_NO": 999, "REV_AT_EPOCH": 4000, "BSTAR": 0, "MEAN_MOTION_DOT": 1.08e-06, "MEAN_MOTION_DDOT": 0}, "tle": {"line1": "1 46805U 20075A   25349.93197992  .00000108  00000+0  00000+0 0  9996", "line2": "2 46805  64.5961 198.5898 0006231 228.6409 131.3861  2.13100081 40000"}}, "geometry": {"type": "Point", "coordinates": [-78.84327496995391, 64.39176983934942]}}, {"type": "Feature", "properties": {"norad_id": 46826, "name": "GPS BIII-4  (PRN 14)", "group": "gnss", "lat": 31.92710009157832, "lon": 11.274942996292985, "alt_km": 20102.379101019942, "timestamp": "2025-12-16T23:36:36.440100+00:00", "meta": {"OBJECT_NAME": "GPS BIII-4  (PRN 14)", "OBJECT_ID": "2020-078A", "EPOCH": "2025-12-16T00:41:28.878144", "MEAN_MOTION": 2.00566889, "ECCENTRICITY": 0.00647497, "INCLINATION": 54.0145, "RA_OF_ASC_NODE": 218.2075, "ARG_OF_PERICENTER": 203.3739, "MEAN_ANOMALY": 326.9917, "EPHEMERIS_TYPE": 0, "CLASSIFICATION_TYPE": "U", "NORAD_CAT_ID": 46826, "ELEMENT_SET_NO": 999, "REV_AT_EPOCH": 3783, "BSTAR": 0, "MEAN_MOTION_DOT": 6.6e-07, "MEAN_MOTION_DDOT": 0}, "tle": {"line1": "1 46826U 20078A   25350.02880646  .00000066  00000+0  00000+0 0  9992", "line2": "2 46826  54.0145 218.2075 0064749 203.3739 326.9917  2.00566889 37831"}}, "geometry": {"type": "Point", "coordinates": [11.274942996292985, 31.92710009157832]}}, {"type": "Feature", "properties": {"norad_id": 48859, "name": "GPS BIII-5  (PRN 11)", "group": "gnss", "lat": -27.890319516832154, "lon": -41.774049600018714, "alt_km": 20188.362065918383, "timestamp": "2025-12-16T23:36:36.440113+00:00", "meta": {"OBJECT_NAME": "GPS BIII-5  (PRN 11)", "OBJECT_ID": "2021-054A", "EPOCH": "2025-12-08T04:14:32.423424", "MEAN_MOTION": 2.00553627, "ECCENTRICITY": 0.0024678, "INCLINATION": 55.2581, "RA_OF_ASC_NODE": 340.1367, "ARG_OF_PERICENTER": 233.3994, "MEAN_ANOMALY": 212.8593, "EPHEMERIS_TYPE": 0, "CLASSIFICATION_TYPE": "U", "NORAD_CAT_ID": 48859, "ELEMENT_SET_NO": 999, "REV_AT_EPOCH": 3292, "BSTAR": 0, "MEAN_MOTION_DOT": -8.6e-07, "MEAN_MOTION_DDOT": 0}, "tle": {"line1": "1 48859U 21054A   25342.17676416 -.00000086  00000+0  00000+0 0  9993", "line2": "2 48859  55.2581 340.1367 0024678 233.3994 212.8593  2.00553627 32922"}}, "geometry": {"type": "Point", "coordinates": [-41.774049600018714, -27.890319516832154]}}, {"type": "Feature", "properties": {"norad_id": 49336, "name": "QZS-1R (QZSS/PRN 196)", "group": "gnss", "lat": 28.792372914115777, "lon": -144.29883129530734, "alt_km": 38279.169996473975, "timestamp": "2025-12-16T23:36:36.440125+00:00", "meta": {"OBJECT_NAME": "QZS-1R (QZSS/PRN 196)", "OBJECT_ID": "2021-096A", "EPOCH": "2025-12-15T14:04:19.286112", "MEAN_MOTION": 1.00256896, "ECCENTRICITY": 0.07559117, "INCLINATION": 37.0835, "RA_OF_ASC_NODE": 82.3168, "ARG_OF_PERICENTER": 271.3828, "MEAN_ANOMALY": 76.4779, "EPHEMERIS_TYPE": 0, "CLASSIFICATION_TYPE": "U", "NORAD_CAT_ID": 49336, "ELEMENT_SET_NO": 999, "REV_AT_EPOCH": 1516, "BSTAR": 0, "MEAN_MOTION_DOT": -2.8e-06, "MEAN_MOTION_DDOT": 0}, "tle": {"line1": "1 49336U 21096A   25349.58633433 -.00000280  00000+0  00000+0 0  9990", "line2": "2 49336  37.0835  82.3168 0755911 271.3828  76.4779  1.00256896 15160"}}, "geometry": {"type": "Point", "coordinates": [-144.29883129530734, 28.792372914115777]}}, {"type": "Feature", "properties": {"norad_id": 49809, "name": "GSAT0223 (GALILEO 27)", "group": "gnss", "lat": -55.20726642819109, "lon": -125.33979904469224, "alt_km": 23214.743508086445, "timestamp": "2025-12-16T23:36:36.440138+00:00", "meta": {"OBJECT_NAME": "GSAT0223 (GALILEO 27)", "OBJECT_ID": "2021-116A", "EPOCH": "2025-12-16T06:27:02.542752", "MEAN_MOTION": 1.7047608, "ECCENTRICITY": 0.00044443, "INCLINATION": 57.2186, "RA_OF_ASC_NODE": 346.6172, "ARG_OF_PERICENTER": 253.7199, "MEAN_ANOMALY": 285.1597, "EPHEMERIS_TYPE": 0, "CLASSIFICATION_TYPE": "U", "NORAD_CAT_ID": 49809, "ELEMENT_SET_NO": 999, "REV_AT_EPOCH": 2506, "BSTAR": 0, "MEAN_MOTION_DOT": -8.1e-07, "MEAN_MOTION_DDOT": 0}, "tle": {"line1": "1 49809U 21116A   25350.26877943 -.00000081  00000+0  00000+0 0  9990", "line2": "2 49809  57.2186 346.6172 0004444 253.7199 285.1597  1.70476080 25065"}}, "geometry": {"type": "Point", "coordinates": [-125.33979904469224, -55.20726642819109]}}]}